{
    "links": {
        "self": "http://www.neowsapp.com/rest/v1/neo/3838867?api_key=iIulBulltgU6a56xZRHN4H3l9WmuAYTsLGpBGhQ2"
    },
    "id": "3838867",
    "neo_reference_id": "3838867",
    "name": "(2019 DT1)",
    "designation": "2019 DT1",
    "nasa_jpl_url": "http://ssd.jpl.nasa.gov/sbdb.cgi?sstr=3838867",
    "absolute_magnitude_h": 26.5,
    "estimated_diameter": {
        "kilometers": {
            "estimated_diameter_min": 0.0133215567,
            "estimated_diameter_max": 0.0297879063
        },
        "meters": {
            "estimated_diameter_min": 13.3215566698,
            "estimated_diameter_max": 29.7879062798
        },
        "miles": {
            "estimated_diameter_min": 0.008277629,
            "estimated_diameter_max": 0.0185093411
        },
        "feet": {
            "estimated_diameter_min": 43.7058959846,
            "estimated_diameter_max": 97.7293544391
        }
    },
    "is_potentially_hazardous_asteroid": false,
    "close_approach_data": [
        {
            "close_approach_date": "2019-03-03",
            "close_approach_date_full": "2019-Mar-03 05:58",
            "epoch_date_close_approach": 1551592680000,
            "relative_velocity": {
                "kilometers_per_second": "7.9819216205",
                "kilometers_per_hour": "28734.9178338159",
                "miles_per_hour": "17854.7604729064"
            },
            "miss_distance": {
                "astronomical": "0.0446731681",
                "lunar": "17.3778623909",
                "kilometers": "6683010.793911947",
                "miles": "4152630.3473089886"
            },
            "orbiting_body": "Earth"
        }
    ],
    "orbital_data": {
        "orbit_id": "2",
        "orbit_determination_date": "2019-03-04 07:35:08",
        "first_observation_date": "2019-02-28",
        "last_observation_date": "2019-03-04",
        "data_arc_in_days": 4,
        "observations_used": 20,
        "orbit_uncertainty": "8",
        "minimum_orbit_intersection": ".0417177",
        "jupiter_tisserand_invariant": "4.602",
        "epoch_osculation": "2458543.5",
        "eccentricity": ".2859408193132985",
        "semi_major_axis": "1.437880475001784",
        "inclination": "12.57042390358144",
        "ascending_node_longitude": "340.5429999378032",
        "orbital_period": "629.7709251790185",
        "perihelion_distance": "1.026731753905179",
        "perihelion_argument": "194.9323080661735",
        "aphelion_distance": "1.849029196098389",
        "perihelion_time": "2458557.378523781163",
        "mean_anomaly": "352.0665302867095",
        "mean_motion": ".5716364246216457",
        "equinox": "J2000",
        "orbit_class": {
            "orbit_class_type": "AMO",
            "orbit_class_description": "Near-Earth asteroid orbits similar to that of 1221 Amor",
            "orbit_class_range": "1.017 AU < q (perihelion) < 1.3 AU"
        }
    },
    "is_sentry_object": false
}